HAWK-5A                 
1 52757U 22057AB  26169.91423760  .00015055  00000+0  25676-3 0  9992
2 52757  97.6612 328.8729 0005479  73.8594 286.3260 15.51441926226611
HAWK-6B                 
1 55324U 23011A   26169.75691109  .00003855  00000+0  16889-3 0  9993
2 55324  40.4999 342.9161 0002093  11.2202 348.8654 15.22945454188088
HAWK-6C                 
1 55326U 23011C   26169.75625098  .00003655  00000+0  16058-3 0  9995
2 55326  40.4990 339.7585 0002980   0.0210   0.0599 15.22942081188094
HAWK-6A                 
1 55327U 23011D   26169.75630368  .00003921  00000+0  17164-3 0  9997
2 55327  40.4999 341.3824 0002681 355.8331   4.2456 15.22943830188093
HAWK-7A                 
1 56191U 23054P   26169.94477442  .00004282  00000+0  16244-3 0  9996
2 56191  97.2696  57.2372 0004199  53.2900 306.8724 15.27374986177299
HAWK-7B                 
1 56193U 23054R   26169.94469291  .00004352  00000+0  16508-3 0  9992
2 56193  97.2721  55.5017 0003643  65.6972 294.4648 15.27373119177290
HAWK-7C                 
1 56200U 23054Y   26169.94458003  .00004228  00000+0  16045-3 0  9998
2 56200  97.2699  56.2698 0003574  56.9116 303.2466 15.27374357177294
