OBJECT_NAME,OBJECT_ID,EPOCH,MEAN_MOTION,ECCENTRICITY,INCLINATION,RA_OF_ASC_NODE,ARG_OF_PERICENTER,MEAN_ANOMALY,EPHEMERIS_TYPE,CLASSIFICATION_TYPE,NORAD_CAT_ID,ELEMENT_SET_NO,REV_AT_EPOCH,BSTAR,MEAN_MOTION_DOT,MEAN_MOTION_DDOT
HAWK-5A,2022-057AB,2026-06-18T21:56:30.128640,15.51441926,.00054792,97.6612,328.8729,73.8594,286.3260,0,U,52757,999,22661,.25675519E-3,.15055E-3,0
HAWK-6B,2023-011A,2026-06-18T18:09:57.118176,15.22945454,.00020932,40.4999,342.9161,11.2202,348.8654,0,U,55324,999,18808,.16888647E-3,.3855E-4,0
HAWK-6C,2023-011C,2026-06-18T18:09:00.084672,15.22942081,.00029808,40.4990,339.7585,0.0210,0.0599,0,U,55326,999,18809,.16057736E-3,.3655E-4,0
HAWK-6A,2023-011D,2026-06-18T18:09:04.637952,15.22943830,.00026815,40.4999,341.3824,355.8331,4.2456,0,U,55327,999,18809,.17164072E-3,.3921E-4,0
HAWK-7A,2023-054P,2026-06-18T22:40:28.509888,15.27374986,.00041995,97.2696,57.2372,53.2900,306.8724,0,U,56191,999,17729,.16244192E-3,.4282E-4,0
HAWK-7B,2023-054R,2026-06-18T22:40:21.467424,15.27373119,.0003643,97.2721,55.5017,65.6972,294.4648,0,U,56193,999,17729,.16507729E-3,.4352E-4,0
HAWK-7C,2023-054Y,2026-06-18T22:40:11.714592,15.27374357,.00035749,97.2699,56.2698,56.9116,303.2466,0,U,56200,999,17729,.16045119E-3,.4228E-4,0
